{
    "links": {
        "self": "http://www.neowsapp.com/rest/v1/neo/3471691?api_key=iIulBulltgU6a56xZRHN4H3l9WmuAYTsLGpBGhQ2"
    },
    "id": "3471691",
    "neo_reference_id": "3471691",
    "name": "(2009 UO1)",
    "designation": "2009 UO1",
    "nasa_jpl_url": "http://ssd.jpl.nasa.gov/sbdb.cgi?sstr=3471691",
    "absolute_magnitude_h": 24.4,
    "estimated_diameter": {
        "kilometers": {
            "estimated_diameter_min": 0.0350392641,
            "estimated_diameter_max": 0.0783501764
        },
        "meters": {
            "estimated_diameter_min": 35.0392641108,
            "estimated_diameter_max": 78.3501764334
        },
        "miles": {
            "estimated_diameter_min": 0.0217723826,
            "estimated_diameter_max": 0.0486845275
        },
        "feet": {
            "estimated_diameter_min": 114.9582192654,
            "estimated_diameter_max": 257.0543928497
        }
    },
    "is_potentially_hazardous_asteroid": false,
    "close_approach_data": [
        {
            "close_approach_date": "2009-10-11",
            "close_approach_date_full": "2009-Oct-11 22:31",
            "epoch_date_close_approach": 1255300260000,
            "relative_velocity": {
                "kilometers_per_second": "11.8331314642",
                "kilometers_per_hour": "42599.273271012",
                "miles_per_hour": "26469.5317722019"
            },
            "miss_distance": {
                "astronomical": "0.0344086152",
                "lunar": "13.3849513128",
                "kilometers": "5147455.543569624",
                "miles": "3198480.5592598512"
            },
            "orbiting_body": "Earth"
        }
    ],
    "orbital_data": {
        "orbit_id": "7",
        "orbit_determination_date": "2017-04-06 08:59:31",
        "first_observation_date": "2009-10-17",
        "last_observation_date": "2009-10-22",
        "data_arc_in_days": 5,
        "observations_used": 28,
        "orbit_uncertainty": "8",
        "minimum_orbit_intersection": ".00730431",
        "jupiter_tisserand_invariant": "4.370",
        "epoch_osculation": "2455123.5",
        "eccentricity": ".4716822361760482",
        "semi_major_axis": "1.522163786087868",
        "inclination": "4.016820010494043",
        "ascending_node_longitude": "207.5277797186223",
        "orbital_period": "685.9469114195665",
        "perihelion_distance": ".8041861676397423",
        "perihelion_argument": "107.2255956773121",
        "aphelion_distance": "2.240141404535993",
        "perihelion_time": "2455070.484158187052",
        "mean_anomaly": "27.82387781754631",
        "mean_motion": ".5248219563449602",
        "equinox": "J2000",
        "orbit_class": {
            "orbit_class_type": "APO",
            "orbit_class_description": "Near-Earth asteroid orbits which cross the Earth’s orbit similar to that of 1862 Apollo",
            "orbit_class_range": "a (semi-major axis) > 1.0 AU; q (perihelion) < 1.017 AU"
        }
    },
    "is_sentry_object": false
}